NORAD_CAT_ID,OBJECT_NAME,OBJECT_TYPE,EPOCH,MEAN_MOTION,ECCENTRICITY,INCLINATION,RA_OF_ASC_NODE,ARG_OF_PERICENTER,MEAN_ANOMALY,BSTAR,MEAN_MOTION_DOT,MEAN_MOTION_DDOT,TLE_LINE0,TLE_LINE1,TLE_LINE2,SEMIMAJOR_AXIS,PERIOD,APOGEE,PERIGEE,DECAYED
51978.0,STARLINK-3666,PAYLOAD,2022-07-13 14:00:01,15.0883846,0.000166,53.214,272.6393,62.3716,177.1189,-0.0012749,-0.0002052,0.0,0 STARLINK-3666,1 51978U 22025Y   22194.58334491 -.00020520  00000-0 -12749-2 0  9992,2 51978  53.2140 272.6393 0001660  62.3716 177.1189 15.08838460  1308,6917.885,95.438,540.898,538.602,0.0
51978.0,STARLINK-3666,PAYLOAD,2022-07-13 22:00:00,15.08829782,0.0001547,53.2138,271.1416,64.1111,186.9651,-0.003616,-0.00057363,0.0,0 STARLINK-3666,1 51978U 22025Y   22194.91667824 -.00057363  00000-0 -36160-2 0  9996,2 51978  53.2138 271.1416 0001547  64.1111 186.9651 15.08829782 20645,6917.9119999999975,95.438,540.847,538.706,0.0
51978.0,STARLINK-3666,PAYLOAD,2022-07-14 14:00:01,15.08786208,0.0001744,53.2137,268.1503,61.4408,212.742,0.0021963,0.00034788,0.0,0 STARLINK-3666,1 51978U 22025Y   22195.58334491  .00034788  00000-0  21963-2 0  9990,2 51978  53.2137 268.1503 0001744  61.4408 212.7420 15.08786208 20743,6918.045,95.441,541.116,538.703,0.0
51978.0,STARLINK-3666,PAYLOAD,2022-07-14 22:00:00,15.08820634,0.0001629,53.2136,266.6525,63.9265,221.8044,-0.0010065,-0.00016262,0.0,0 STARLINK-3666,1 51978U 22025Y   22195.91667824 -.00016262  00000-0 -10065-2 0  9996,2 51978  53.2136 266.6525 0001629  63.9265 221.8044 15.08820634  1305,6917.94,95.439,540.932,538.678,0.0
51978.0,STARLINK-3666,PAYLOAD,2022-07-15 14:00:01,15.08808606,0.0001794,53.2136,263.661,60.2882,248.58900000000003,0.0026531,0.00042153,0.0,0 STARLINK-3666,1 51978U 22025Y   22196.58334491  .00042153  00000-0  26531-2 0  9992,2 51978  53.2136 263.6610 0001794  60.2882 248.5890 15.08808606 20890,6917.976,95.44,541.082,538.6,0.0
51978.0,STARLINK-3666,PAYLOAD,2022-07-15 22:00:00,15.08841211,0.000167,53.2136,262.1631,63.4876,256.968,-0.00049337,-8.132e-05,0.0,0 STARLINK-3666,1 51978U 22025Y   22196.91667824 -.00008132  00000-0 -49337-3 0  9999,2 51978  53.2136 262.1631 0001670  63.4876 256.9680 15.08841211  1302,6917.877,95.437,540.8969999999998,538.586,0.0
51978.0,STARLINK-3666,PAYLOAD,2022-07-16 06:00:00,15.08856051,0.0001684,53.2137,260.6664,66.855,265.1883,-0.00017562,-3.083e-05,0.0,0 STARLINK-3666,1 51978U 22025Y   22197.25001157 -.00003083  00000-0 -17562-3 0  9993,2 51978  53.2137 260.6664 0001684  66.8550 265.1883 15.08856051 20994,6917.831,95.437,540.861,538.531,0.0
51978.0,STARLINK-3666,PAYLOAD,2022-07-16 14:00:01,15.08831994,0.0001805,53.2137,259.1715,59.5459,284.1140000000001,0.0028665,0.00045618,0.0,0 STARLINK-3666,1 51978U 22025Y   22197.58334491  .00045618  00000-0  28665-2 0  9992,2 51978  53.2137 259.1715 0001805  59.5459 284.1140 15.08831994  1306,6917.905,95.438,541.019,538.521,0.0
51978.0,STARLINK-3666,PAYLOAD,2022-07-16 22:00:00,15.08873923,0.0001635,53.2137,257.6733,63.2138,292.0593,-0.0014140999999999,-0.00022744,0.0,0 STARLINK-3666,1 51978U 22025Y   22197.91667824 -.00022744  00000-0 -14141-2 0  9999,2 51978  53.2137 257.6733 0001635  63.2138 292.0593 15.08873923  1304,6917.776999999999,95.435,540.773,538.511,0.0
51978.0,STARLINK-3666,PAYLOAD,2022-07-17 14:00:01,15.08842537,0.0001643,53.2137,254.6817,55.8617,322.6481,0.00037545,5.693e-05,0.0,0 STARLINK-3666,1 51978U 22025Y   22198.58334491  .00005693  00000-0  37545-3 0  9990,2 51978  53.2137 254.6817 0001643  55.8617 322.6481 15.08842537 21194,6917.873000000001,95.437,540.874,538.601,0.0
51978.0,STARLINK-3666,PAYLOAD,2022-07-17 22:00:00,15.08824206,0.0001428,53.2137,253.1835,60.5182,329.5895,0.00025377,3.751e-05,0.0,0 STARLINK-3666,1 51978U 22025Y   22198.91667824  .00003751  00000-0  25377-3 0  9999,2 51978  53.2137 253.1835 0001428  60.5182 329.5895 15.08824206  1308,6917.929,95.439,540.7819999999998,538.806,0.0
51978.0,STARLINK-3666,PAYLOAD,2022-07-18 06:00:00,15.08849961,0.0001440999999999,53.2139,251.6873,62.3077,339.3741,-0.0011384,-0.00018365,0.0,0 STARLINK-3666,1 51978U 22025Y   22199.25001157 -.00018365  00000-0 -11384-2 0  9999,2 51978  53.2139 251.6873 0001441  62.3077 339.3741 15.08849961 21297,6917.85,95.437,540.712,538.7180000000002,0.0
51978.0,STARLINK-3666,PAYLOAD,2022-07-18 14:00:01,15.0881645,0.0001548,53.2136,250.1921,54.7043,358.5804,0.0029073,0.00046256,0.0,0 STARLINK-3666,1 51978U 22025Y   22199.58334491  .00046256  00000-0  29073-2 0  9997,2 51978  53.2136 250.1921 0001548  54.7043 358.5804 15.08816450  1308,6917.9519999999975,95.439,540.888,538.746,0.0
51978.0,STARLINK-3666,PAYLOAD,2022-07-18 22:00:00,15.08833086,0.0001395999999999,53.2138,248.6938,61.6013,3.2762,0.0010455,0.00016387,0.0,0 STARLINK-3666,1 51978U 22025Y   22199.91667824  .00016387  00000-0  10455-2 0  9999,2 51978  53.2138 248.6938 0001396  61.6013   3.2762 15.08833086  1306,6917.901999999999,95.438,540.732,538.8009999999998,0.0
51978.0,STARLINK-3666,PAYLOAD,2022-07-19 06:00:00,15.08865772,0.0001444,53.2136,247.1979,62.6589,13.807,-0.0015482999999999,-0.00024862,0.0,0 STARLINK-3666,1 51978U 22025Y   22200.25001157 -.00024862  00000-0 -15483-2 0  9995,2 51978  53.2136 247.1979 0001444  62.6589  13.8070 15.08865772 21449,6917.802,95.436,540.6659999999998,538.668,0.0
51978.0,STARLINK-3666,PAYLOAD,2022-07-19 14:00:01,15.088444199999998,0.000158,53.2139,245.7025,55.3207,32.7631,0.00044137,6.744e-05,0.0,0 STARLINK-3666,1 51978U 22025Y   22200.58334491  .00006744  00000-0  44137-3 0  9997,2 51978  53.2139 245.7025 0001580  55.3207  32.7631 15.08844420  1308,6917.8669999999975,95.437,540.825,538.639,0.0
51978.0,STARLINK-3666,PAYLOAD,2022-07-19 22:00:00,15.08841486,0.0001462,53.2156,244.2054,60.1648,39.5241,-0.0034243,-0.00054377,0.0,0 STARLINK-3666,1 51978U 22025Y   22200.91667824 -.00054377  00000-0 -34243-2 0  9996,2 51978  53.2156 244.2054 0001462  60.1648  39.5241 15.08841486  1306,6917.876,95.437,540.752,538.729,0.0
51978.0,STARLINK-3666,PAYLOAD,2022-07-20 14:00:01,15.08820228,0.0001473,53.2148,241.2132,51.898,70.9473,0.0025506,0.00040516,0.0,0 STARLINK-3666,1 51978U 22025Y   22201.58334491  .00040516  00000-0  25506-2 0  9991,2 51978  53.2148 241.2132 0001473  51.8980  70.9473 15.08820228 21656,6917.941,95.439,540.825,538.7869999999998,0.0
51978.0,STARLINK-3666,PAYLOAD,2022-07-20 22:00:01,15.08832919,0.000138,53.2149,239.7149,60.1925,74.3176,-0.00076108,-0.00012378,0.0,0 STARLINK-3666,1 51978U 22025Y   22201.91668981 -.00012378  00000-0 -76108-3 0  9994,2 51978  53.2149 239.7149 0001380  60.1925  74.3176 15.08832919  1304,6917.901999999999,95.438,540.722,538.812,0.0
51978.0,STARLINK-3666,PAYLOAD,2022-07-21 06:00:00,15.08837955,0.000153,53.215,238.2192,61.1591,84.8638,-0.0017249,-0.00027633,0.0,0 STARLINK-3666,1 51978U 22025Y   22202.25001157 -.00027633  00000-0 -17249-2 0  9998,2 51978  53.2150 238.2192 0001530  61.1591  84.8638 15.08837955 21750,6917.887,95.438,540.81,538.693,0.0
51978.0,STARLINK-3666,PAYLOAD,2022-07-21 14:00:01,15.08806203,0.0001618,53.2148,236.7238,53.3847,104.2817,0.0024004,0.00038086,0.0,0 STARLINK-3666,1 51978U 22025Y   22202.58335648  .00038086  00000-0  24004-2 0  9998,2 51978  53.2148 236.7238 0001618  53.3847 104.2817 15.08806203  1302,6917.984,95.44,540.9680000000002,538.729,0.0
51978.0,STARLINK-3666,PAYLOAD,2022-07-21 22:00:00,15.08808857,0.0001483,53.2149,235.2257,59.772,109.411,0.0021092,0.00033411,0.0,0 STARLINK-3666,1 51978U 22025Y   22202.91667824  .00033411  00000-0  21092-2 0  9990,2 51978  53.2149 235.2257 0001483  59.7720 109.4110 15.08808857  1308,6917.976,95.44,540.867,538.815,0.0
51978.0,STARLINK-3666,PAYLOAD,2022-07-22 06:00:00,15.08846205,0.000161,53.215,233.7302,59.4064,121.3465,-0.0016244,-0.00026052,0.0,0 STARLINK-3666,1 51978U 22025Y   22203.25001157 -.00026052  00000-0 -16244-2 0  9997,2 51978  53.2150 233.7302 0001610  59.4064 121.3465 15.08846205  1309,6917.861,95.437,540.84,538.613,0.0
51978.0,STARLINK-3666,PAYLOAD,2022-07-22 12:00:00,15.08812383,0.0001696,53.2151,232.609,53.8725,45.5812,0.0027798,0.00044197,0.0,0 STARLINK-3666,1 51978U 22025Y   22203.50001157  .00044197  00000-0  27798-2 0  9999,2 51978  53.2151 232.6090 0001696  53.8725  45.5812 15.08812383 21943,6917.965,95.439,541.003,538.6569999999998,0.0
51978.0,STARLINK-3666,PAYLOAD,2022-07-22 22:00:00,15.08820176,0.0001564,53.2151,230.7365,59.0196,144.9231,0.0024757,0.00039312,0.0,0 STARLINK-3666,1 51978U 22025Y   22203.91667824  .00039312  00000-0  24757-2 0  9998,2 51978  53.2151 230.7365 0001564  59.0196 144.9231 15.08820176  1307,6917.941,95.439,540.888,538.724,0.0
51978.0,STARLINK-3666,PAYLOAD,2022-07-23 08:00:01,15.08850596,0.0001754999999999,53.2155,228.8681,55.8945,252.5381,-0.00077933,-0.00012673,0.0,0 STARLINK-3666,1 51978U 22025Y   22204.33334491 -.00012673  00000-0 -77933-3 0  9994,2 51978  53.2155 228.8681 0001755  55.8945 252.5381 15.08850596 22065,6917.848000000001,95.437,540.927,538.499,0.0
51978.0,STARLINK-3666,PAYLOAD,2022-07-23 14:00:01,15.08839034,0.0001764999999999,53.2151,227.7454,52.6085,174.5829,0.0012038,0.00018922,0.0,0 STARLINK-3666,1 51978U 22025Y   22204.58335648  .00018922  00000-0  12038-2 0  9991,2 51978  53.2151 227.7454 0001765  52.6085 174.5829 15.08839034  1306,6917.8830000000025,95.438,540.969,538.5269999999998,0.0
51978.0,STARLINK-3666,PAYLOAD,2022-07-23 22:00:00,15.08828311,0.0001631999999999,53.2153,226.2473,59.151,179.5884,0.0026691999999999,0.00042435,0.0,0 STARLINK-3666,1 51978U 22025Y   22204.91667824  .00042435  00000-0  26692-2 0  9999,2 51978  53.2153 226.2473 0001632  59.1510 179.5884 15.08828311  1303,6917.916,95.438,540.91,538.6519999999998,0.0
51978.0,STARLINK-3666,PAYLOAD,2022-07-24 06:00:00,15.08863687,0.000174,53.2153,224.752,57.1418,193.1934,-0.0014717,-0.00023649,0.0,0 STARLINK-3666,1 51978U 22025Y   22205.25001157 -.00023649  00000-0 -14717-2 0  9991,2 51978  53.2153 224.7520 0001740  57.1418 193.1934 15.08863687 22209,6917.808000000001,95.436,540.877,538.469,0.0
